[{"OBJECT_NAME":"STARLINK-5072","OBJECT_ID":"2023-028T","EPOCH":"2026-03-09T21:28:37.229376","MEAN_MOTION":14.98331552,"ECCENTRICITY":0.00029159,"INCLINATION":69.9993,"RA_OF_ASC_NODE":243.8254,"ARG_OF_PERICENTER":269.9235,"MEAN_ANOMALY":90.159,"EPHEMERIS_TYPE":0,"CLASSIFICATION_TYPE":"U","NORAD_CAT_ID":55758,"ELEMENT_SET_NO":999,"REV_AT_EPOCH":16607,"BSTAR":6.332235e-6,"MEAN_MOTION_DOT":-1.7e-7,"MEAN_MOTION_DDOT":0},{"OBJECT_NAME":"VELOX-I","OBJECT_ID":"2014-034E","EPOCH":"2026-03-09T23:01:40.038816","MEAN_MOTION":14.96870815,"ECCENTRICITY":0.00060607,"INCLINATION":98.2625,"RA_OF_ASC_NODE":328.3713,"ARG_OF_PERICENTER":237.6745,"MEAN_ANOMALY":122.3888,"EPHEMERIS_TYPE":0,"CLASSIFICATION_TYPE":"U","NORAD_CAT_ID":40057,"ELEMENT_SET_NO":999,"REV_AT_EPOCH":63175,"BSTAR":0.00054396772,"MEAN_MOTION_DOT":6.179e-5,"MEAN_MOTION_DDOT":0}]
